{"type": "FeatureCollection", "features": [ {"type": "Feature", "properties": {"norad_id": 39634, "name": "SENTINEL-1A", "group": "resource", "lat": -78.31766986919406, "lon": 136.64554851509152, "alt_km": 703.9907515145087, "timestamp": "2025-12-21T14:40:47.567761+00:00", "meta": {"OBJECT_NAME": "SENTINEL-1A", "OBJECT_ID": "2014-016A", "EPOCH": "2025-12-21T06:54:06.092928", "MEAN_MOTION": 14.59201169, "ECCENTRICITY": 0.00012776, "INCLINATION": 98.1795, "RA_OF_ASC_NODE": 0.4028, "ARG_OF_PERICENTER": 84.9278, "MEAN_ANOMALY": 275.2067, "EPHEMERIS_TYPE": 0, "CLASSIFICATION_TYPE": "U", "NORAD_CAT_ID": 39634, "ELEMENT_SET_NO": 999, "REV_AT_EPOCH": 62407, "BSTAR": 4.7019091e-05, "MEAN_MOTION_DOT": 1.76e-06, "MEAN_MOTION_DDOT": 0}, "tle": {"line1": "1 39634U 14016A   25355.28757052  .00000176  00000+0  47019-4 0  9991", "line2": "2 39634  98.1795   0.4028 0001277  84.9278 275.2067 14.59201169624071"}}, "geometry": {"type": "Point", "coordinates": [136.64554851509152, -78.31766986919406]}}, {"type": "Feature", "properties": {"norad_id": 39731, "name": "KAZEOSAT 1", "group": "resource", "lat": 48.922481991536294, "lon": 57.62812509185192, "alt_km": 746.6728061571002, "timestamp": "2025-12-21T14:40:47.567771+00:00", "meta": {"OBJECT_NAME": "KAZEOSAT 1", "OBJECT_ID": "2014-024A", "EPOCH": "2025-12-21T06:07:27.508800", "MEAN_MOTION": 14.42066751, "ECCENTRICITY": 0.00011895, "INCLINATION": 98.3431, "RA_OF_ASC_NODE": 66.9718, "ARG_OF_PERICENTER": 98.5768, "MEAN_ANOMALY": 261.5556, "EPHEMERIS_TYPE": 0, "CLASSIFICATION_TYPE": "U", "NORAD_CAT_ID": 39731, "ELEMENT_SET_NO": 999, "REV_AT_EPOCH": 61291, "BSTAR": 3.6603053e-05, "MEAN_MOTION_DOT": 7.7e-07, "MEAN_MOTION_DDOT": 0}, "tle": {"line1": "1 39731U 14024A   25355.25517950  .00000077  00000+0  36603-4 0  9993", "line2": "2 39731  98.3431  66.9718 0001189  98.5768 261.5556 14.42066751612917"}}, "geometry": {"type": "Point", "coordinates": [57.62812509185192, 48.922481991536294]}}, {"type": "Feature", "properties": {"norad_id": 39766, "name": "ALOS-2", "group": "resource", "lat": 45.816259622090676, "lon": 82.09351937207575, "alt_km": 626.4247652763815, "timestamp": "2025-12-21T14:40:47.567781+00:00", "meta": {"OBJECT_NAME": "ALOS-2", "OBJECT_ID": "2014-029A", "EPOCH": "2025-12-21T06:21:17.978688", "MEAN_MOTION": 14.79471163, "ECCENTRICITY": 0.00014058, "INCLINATION": 97.9231, "RA_OF_ASC_NODE": 89.99, "ARG_OF_PERICENTER": 99.4399, "MEAN_ANOMALY": 260.6971, "EPHEMERIS_TYPE": 0, "CLASSIFICATION_TYPE": "U", "NORAD_CAT_ID": 39766, "ELEMENT_SET_NO": 999, "REV_AT_EPOCH": 62527, "BSTAR": 0.00018150021, "MEAN_MOTION_DOT": 1.304e-05, "MEAN_MOTION_DDOT": 0}, "tle": {"line1": "1 39766U 14029A   25355.26479142  .00001304  00000+0  18150-3 0  9997", "line2": "2 39766  97.9231  89.9900 0001405  99.4399 260.6971 14.79471163625278"}}, "geometry": {"type": "Point", "coordinates": [82.09351937207575, 45.816259622090676]}}, {"type": "Feature", "properties": {"norad_id": 40010, "name": "KAZEOSAT 2", "group": "resource", "lat": 41.18788836668794, "lon": 26.131718059719162, "alt_km": 605.1351749726755, "timestamp": "2025-12-21T14:40:47.567791+00:00", "meta": {"OBJECT_NAME": "KAZEOSAT 2", "OBJECT_ID": "2014-033A", "EPOCH": "2025-12-21T05:58:27.240960", "MEAN_MOTION": 14.85178806, "ECCENTRICITY": 0.00083747, "INCLINATION": 97.5495, "RA_OF_ASC_NODE": 199.1236, "ARG_OF_PERICENTER": 177.1443, "MEAN_ANOMALY": 182.9822, "EPHEMERIS_TYPE": 0, "CLASSIFICATION_TYPE": "U", "NORAD_CAT_ID": 40010, "ELEMENT_SET_NO": 999, "REV_AT_EPOCH": 62254, "BSTAR": 3.5734186e-05, "MEAN_MOTION_DOT": 2.56e-06, "MEAN_MOTION_DDOT": 0}, "tle": {"line1": "1 40010U 14033A   25355.24892640  .00000256  00000+0  35734-4 0  9999", "line2": "2 40010  97.5495 199.1236 0008374 177.1443 182.9822 14.85178806622545"}}, "geometry": {"type": "Point", "coordinates": [26.131718059719162, 41.18788836668794]}}, {"type": "Feature", "properties": {"norad_id": 40011, "name": "HODOYOSHI-4", "group": "resource", "lat": -58.844679373969235, "lon": -163.28608309483303, "alt_km": 623.459053340107, "timestamp": "2025-12-21T14:40:47.567802+00:00", "meta": {"OBJECT_NAME": "HODOYOSHI-4", "OBJECT_ID": "2014-033B", "EPOCH": "2025-12-21T06:52:36.229152", "MEAN_MOTION": 14.87509696, "ECCENTRICITY": 0.00238552, "INCLINATION": 97.5406, "RA_OF_ASC_NODE": 183.7483, "ARG_OF_PERICENTER": 171.8482, "MEAN_ANOMALY": 188.3128, "EPHEMERIS_TYPE": 0, "CLASSIFICATION_TYPE": "U", "NORAD_CAT_ID": 40011, "ELEMENT_SET_NO": 999, "REV_AT_EPOCH": 62235, "BSTAR": 0.0001703474, "MEAN_MOTION_DOT": 1.5e-05, "MEAN_MOTION_DDOT": 0}, "tle": {"line1": "1 40011U 14033B   25355.28653043  .00001500  00000+0  17035-3 0  9992", "line2": "2 40011  97.5406 183.7483 0023855 171.8482 188.3128 14.87509696622351"}}, "geometry": {"type": "Point", "coordinates": [-163.28608309483303, -58.844679373969235]}}, {"type": "Feature", "properties": {"norad_id": 40013, "name": "DEIMOS-2", "group": "resource", "lat": -81.93155130117943, "lon": -58.36644063188627, "alt_km": 596.9499860283513, "timestamp": "2025-12-21T14:40:47.567812+00:00", "meta": {"OBJECT_NAME": "DEIMOS-2", "OBJECT_ID": "2014-033D", "EPOCH": "2025-12-21T05:25:10.871328", "MEAN_MOTION": 14.93010265, "ECCENTRICITY": 0.0001501, "INCLINATION": 97.6068, "RA_OF_ASC_NODE": 230.7459, "ARG_OF_PERICENTER": 102.3953, "MEAN_ANOMALY": 257.7435, "EPHEMERIS_TYPE": 0, "CLASSIFICATION_TYPE": "U", "NORAD_CAT_ID": 40013, "ELEMENT_SET_NO": 999, "REV_AT_EPOCH": 61116, "BSTAR": 0.00021631044, "MEAN_MOTION_DOT": 2.194e-05, "MEAN_MOTION_DDOT": 0}, "tle": {"line1": "1 40013U 14033D   25355.22582027  .00002194  00000+0  21631-3 0  9998", "line2": "2 40013  97.6068 230.7459 0001501 102.3953 257.7435 14.93010265611165"}}, "geometry": {"type": "Point", "coordinates": [-58.36644063188627, -81.93155130117943]}}, {"type": "Feature", "properties": {"norad_id": 40015, "name": "HODOYOSHI-3", "group": "resource", "lat": 39.570944910264004, "lon": -12.586638618237705, "alt_km": 606.277385272846, "timestamp": "2025-12-21T14:40:47.567822+00:00", "meta": {"OBJECT_NAME": "HODOYOSHI-3", "OBJECT_ID": "2014-033F", "EPOCH": "2025-12-21T05:57:44.868672", "MEAN_MOTION": 14.84833252, "ECCENTRICITY": 0.00322891, "INCLINATION": 97.6204, "RA_OF_ASC_NODE": 160.7137, "ARG_OF_PERICENTER": 218.9607, "MEAN_ANOMALY": 140.9282, "EPHEMERIS_TYPE": 0, "CLASSIFICATION_TYPE": "U", "NORAD_CAT_ID": 40015, "ELEMENT_SET_NO": 999, "REV_AT_EPOCH": 62121, "BSTAR": 0.00015585101, "MEAN_MOTION_DOT": 1.283e-05, "MEAN_MOTION_DDOT": 0}, "tle": {"line1": "1 40015U 14033F   25355.24843598  .00001283  00000+0  15585-3 0  9994", "line2": "2 40015  97.6204 160.7137 0032289 218.9607 140.9282 14.84833252621210"}}, "geometry": {"type": "Point", "coordinates": [-12.586638618237705, 39.570944910264004]}}, {"type": "Feature", "properties": {"norad_id": 40053, "name": "SPOT 7", "group": "resource", "lat": 4.522051389626018, "lon": -121.8724404374233, "alt_km": 693.1665239368367, "timestamp": "2025-12-21T14:40:47.567832+00:00", "meta": {"OBJECT_NAME": "SPOT 7", "OBJECT_ID": "2014-034A", "EPOCH": "2025-12-21T07:18:14.740992", "MEAN_MOTION": 14.60743871, "ECCENTRICITY": 0.00015603, "INCLINATION": 98.09, "RA_OF_ASC_NODE": 57.1828, "ARG_OF_PERICENTER": 85.5352, "MEAN_ANOMALY": 274.6027, "EPHEMERIS_TYPE": 0, "CLASSIFICATION_TYPE": "U", "NORAD_CAT_ID": 40053, "ELEMENT_SET_NO": 999, "REV_AT_EPOCH": 61116, "BSTAR": 0.00010055587, "MEAN_MOTION_DOT": 4.45e-06, "MEAN_MOTION_DDOT": 0}, "tle": {"line1": "1 40053U 14034A   25355.30433728  .00000445  00000+0  10056-3 0  9991", "line2": "2 40053  98.0900  57.1828 0001560  85.5352 274.6027 14.60743871611165"}}, "geometry": {"type": "Point", "coordinates": [-121.8724404374233, 4.522051389626018]}}, {"type": "Feature", "properties": {"norad_id": 40072, "name": "SKYSAT-B", "group": "resource", "lat": -58.123436355613094, "lon": 106.10445259045726, "alt_km": 615.1956435305674, "timestamp": "2025-12-21T14:40:47.567842+00:00", "meta": {"OBJECT_NAME": "SKYSAT-B", "OBJECT_ID": "2014-037D", "EPOCH": "2025-12-21T02:18:24.374880", "MEAN_MOTION": 14.87353846, "ECCENTRICITY": 0.00066589, "INCLINATION": 98.3624, "RA_OF_ASC_NODE": 299.2438, "ARG_OF_PERICENTER": 126.731, "MEAN_ANOMALY": 233.4517, "EPHEMERIS_TYPE": 0, "CLASSIFICATION_TYPE": "U", "NORAD_CAT_ID": 40072, "ELEMENT_SET_NO": 999, "REV_AT_EPOCH": 61948, "BSTAR": 0.00013429035, "MEAN_MOTION_DOT": 1.152e-05, "MEAN_MOTION_DDOT": 0}, "tle": {"line1": "1 40072U 14037D   25355.09611545  .00001152  00000+0  13429-3 0  9999", "line2": "2 40072  98.3624 299.2438 0006658 126.7310 233.4517 14.87353846619481"}}, "geometry": {"type": "Point", "coordinates": [106.10445259045726, -58.123436355613094]}}, {"type": "Feature", "properties": {"norad_id": 40115, "name": "WORLDVIEW-3 (WV-3)", "group": "resource", "lat": 58.77510134382417, "lon": 54.58127827704122, "alt_km": 608.6215613574823, "timestamp": "2025-12-21T14:40:47.567853+00:00", "meta": {"OBJECT_NAME": "WORLDVIEW-3 (WV-3)", "OBJECT_ID": "2014-048A", "EPOCH": "2025-12-21T06:19:27.806592", "MEAN_MOTION": 14.84665896, "ECCENTRICITY": 0.00018323, "INCLINATION": 97.8769, "RA_OF_ASC_NODE": 67.4387, "ARG_OF_PERICENTER": 135.3625, "MEAN_ANOMALY": 224.7738, "EPHEMERIS_TYPE": 0, "CLASSIFICATION_TYPE": "U", "NORAD_CAT_ID": 40115, "ELEMENT_SET_NO": 999, "REV_AT_EPOCH": 61550, "BSTAR": 0.00010657299, "MEAN_MOTION_DOT": 8.48e-06, "MEAN_MOTION_DDOT": 0}, "tle": {"line1": "1 40115U 14048A   25355.26351628  .00000848  00000+0  10657-3 0  9992", "line2": "2 40115  97.8769  67.4387 0001832 135.3625 224.7738 14.84665896615500"}}, "geometry": {"type": "Point", "coordinates": [54.58127827704122, 58.77510134382417]}}]}